NORAD_CAT_ID,OBJECT_NAME,OBJECT_TYPE,EPOCH,MEAN_MOTION,ECCENTRICITY,INCLINATION,RA_OF_ASC_NODE,ARG_OF_PERICENTER,MEAN_ANOMALY,BSTAR,MEAN_MOTION_DOT,MEAN_MOTION_DDOT,TLE_LINE0,TLE_LINE1,TLE_LINE2,SEMIMAJOR_AXIS,PERIOD,APOGEE,PERIGEE,DECAYED
53629.0,STARLINK-4602,PAYLOAD,2023-03-05 08:05:06,15.08843374,0.0001043,53.2169,133.4763,105.9639,254.1468,-0.00032972,-5.532e-05,0.0,0 STARLINK-4602,1 53629U 22104AT  23064.33688261 -.00005532  00000-0 -32972-3 0  9999,2 53629  53.2169 133.4763 0001043 105.9639 254.1468 15.08843374 28958,6917.87,95.437,540.457,539.014,0.0
53629.0,STARLINK-4602,PAYLOAD,2023-03-05 09:40:29,15.08845075,0.0001268,53.2171,133.1786,93.5808,266.5329,-0.00030672,-5.167e-05,0.0,0 STARLINK-4602,1 53629U 22104AT  23064.40312170 -.00005167  00000-0 -30672-3 0  9999,2 53629  53.2171 133.1786 0001268  93.5808 266.5329 15.08845075 29653,6917.865,95.437,540.607,538.853,0.0
53629.0,STARLINK-4602,PAYLOAD,2023-03-06 09:31:15,15.08840254,0.0001299,53.2173,128.7212,86.9125,273.2016,0.00014494,2.02e-05,0.0,0 STARLINK-4602,1 53629U 22104AT  23065.39670790  .00002020  00000-0  14494-3 0  9990,2 53629  53.2173 128.7212 0001299  86.9125 273.2016 15.08840254 29114,6917.88,95.438,540.643,538.846,0.0
53629.0,STARLINK-4602,PAYLOAD,2023-03-06 14:17:23,15.08862735,9.58e-05,53.2161,127.8264,109.8827,250.2268,0.00019465,2.813e-05,0.0,0 STARLINK-4602,1 53629U 22104AT  23065.59541035  .00002813  00000-0  19465-3 0  9994,2 53629  53.2161 127.8264 0000958 109.8827 250.2268 15.08862735 29148,6917.811,95.436,540.339,539.013,0.0
53629.0,STARLINK-4602,PAYLOAD,2023-03-06 20:38:59,15.08825612,0.0001509,53.2169,126.6352,97.3462,262.7701,-0.00017962,-3.144e-05,0.0,0 STARLINK-4602,1 53629U 22104AT  23065.86040534 -.00003144  00000-0 -17962-3 0  9992,2 53629  53.2169 126.6352 0001509  97.3462 262.7701 15.08825612 29873,6917.924,95.438,540.833,538.745,0.0
53629.0,STARLINK-4602,PAYLOAD,2023-03-07 04:35:55,15.08815556,0.000142,53.2155,125.1471,105.024,255.091,-1.1492e-05,-4.71e-06,0.0,0 STARLINK-4602,1 53629U 22104AT  23066.19161006 -.00000471  00000-0 -11492-4 0  9990,2 53629  53.2155 125.1471 0001420 105.0240 255.0910 15.08815556 29230,6917.955,95.439,540.802,538.838,0.0
53629.0,STARLINK-4602,PAYLOAD,2023-03-07 09:22:04,15.08826867,0.0001111,53.2172,124.2612,103.5771,256.5345,-9.2969e-05,-1.767e-05,0.0,0 STARLINK-4602,1 53629U 22104AT  23066.39032950 -.00001767  00000-0 -92969-4 0  9994,2 53629  53.2172 124.2612 0001111 103.5771 256.5345 15.08826867 29263,6917.921,95.438,540.554,539.017,0.0
53629.0,STARLINK-4602,PAYLOAD,2023-03-07 12:32:49,15.08836357,0.000142,53.2181,123.6658,130.8441,229.2675,-1.0975e-05,-4.63e-06,0.0,0 STARLINK-4602,1 53629U 22104AT  23066.52279994 -.00000463  00000-0 -10975-4 0  9999,2 53629  53.2181 123.6658 0001420 130.8441 229.2675 15.08836357 29286,6917.892,95.438,540.739,538.774,0.0
53629.0,STARLINK-4602,PAYLOAD,2023-03-07 20:29:45,15.08835077,6.82e-05,53.2159,122.1785,89.9601,270.1469,-1.8328e-05,-5.79e-06,0.0,0 STARLINK-4602,1 53629U 22104AT  23066.85400271 -.00000579  00000-0 -18328-4 0  9997,2 53629  53.2159 122.1785 0000682  89.9601 270.1469 15.08835077 30025,6917.895,95.438,540.232,539.289,0.0
53629.0,STARLINK-4602,PAYLOAD,2023-03-08 12:23:36,15.08856585,7.11e-05,53.2162,119.2016,123.7551,236.3509,-6.8614e-05,-1.38e-05,0.0,0 STARLINK-4602,1 53629U 22104AT  23067.51639265 -.00001380  00000-0 -68614-4 0  9992,2 53629  53.2162 119.2016 0000711 123.7551 236.3509 15.08856585 29436,6917.83,95.437,540.187,539.203,0.0
53629.0,STARLINK-4602,PAYLOAD,2023-03-08 20:20:32,15.08847842,9.32e-05,53.2166,117.7161,114.7006,245.4083,-0.00014748,-2.635e-05,0.0,0 STARLINK-4602,1 53629U 22104AT  23067.84760020 -.00002635  00000-0 -14748-3 0  9994,2 53629  53.2166 117.7161 0000932 114.7006 245.4083 15.08847842 29483,6917.856,95.437,540.366,539.077,0.0
53629.0,STARLINK-4602,PAYLOAD,2023-03-09 20:11:19,15.08848366,8.67e-05,53.2176,113.2561,95.4097,264.6994,5.5956e-05,6.03e-06,0.0,0 STARLINK-4602,1 53629U 22104AT  23068.84119401  .00000603  00000-0  55956-4 0  9994,2 53629  53.2176 113.2561 0000867  95.4097 264.6994 15.08848366 30322,6917.855,95.437,540.32,539.12,0.0
53629.0,STARLINK-4602,PAYLOAD,2023-03-10 12:05:09,15.08859278,8.36e-05,53.217,110.2809,100.4346,259.674,9.589e-05,1.239e-05,0.0,0 STARLINK-4602,1 53629U 22104AT  23069.50358439  .00001239  00000-0  95890-4 0  9991,2 53629  53.2170 110.2809 0000836 100.4346 259.6740 15.08859278 29738,6917.821,95.436,540.265,539.108,0.0
53629.0,STARLINK-4602,PAYLOAD,2023-03-10 20:02:06,15.08834991,5.78e-05,53.2175,108.7953,121.1757,238.9292,-7.2843e-05,-1.446e-05,0.0,0 STARLINK-4602,1 53629U 22104AT  23069.83480246 -.00001446  00000-0 -72843-4 0  9994,2 53629  53.2175 108.7953 0000578 121.1757 238.9292 15.08834991 30474,6917.896,95.438,540.161,539.361,0.0
53629.0,STARLINK-4602,PAYLOAD,2023-03-11 07:09:49,15.0882741,0.0001213,53.217,106.7147,99.1739,260.939,-0.00015827,-2.805e-05,0.0,0 STARLINK-4602,1 53629U 22104AT  23070.29849535 -.00002805  00000-0 -15827-3 0  9994,2 53629  53.2170 106.7147 0001213  99.1739 260.9390 15.08827410 29855,6917.919,95.438,540.623,538.945,0.0
53629.0,STARLINK-4602,PAYLOAD,2023-03-11 11:55:58,15.08845762,0.0001068,53.2174,105.8212,124.1165,235.9929,-0.00014255,-2.556e-05,0.0,0 STARLINK-4602,1 53629U 22104AT  23070.49720299 -.00002556  00000-0 -14255-3 0  9998,2 53629  53.2174 105.8212 0001068 124.1165 235.9929 15.08845762 30573,6917.863,95.437,540.467,538.989,0.0
53629.0,STARLINK-4602,PAYLOAD,2023-03-12 05:25:13,15.08830735,0.0001283,53.2185,102.5516,118.7939,241.3182,-4.262e-05,-9.66e-06,0.0,0 STARLINK-4602,1 53629U 22104AT  23071.22585071 -.00000966  00000-0 -42620-4 0  9998,2 53629  53.2185 102.5516 0001283 118.7939 241.3182 15.08830735 29993,6917.909,95.438,540.661,538.886,0.0
53629.0,STARLINK-4602,PAYLOAD,2023-03-12 13:22:07,15.0885138,0.0001116,53.2167,101.063,111.053,249.0581,-7.56e-06,-4.08e-06,0.0,0 STARLINK-4602,1 53629U 22104AT  23071.55703572 -.00000408  00000-0 -75600-5 0  9998,2 53629  53.2167 101.0630 0001116 111.0530 249.0581 15.08851380 30047,6917.846,95.437,540.483,538.939,0.0
53629.0,STARLINK-4602,PAYLOAD,2023-03-13 13:12:55,15.08838593,0.0001185,53.216,96.6027,125.2304,234.8799,7.6925e-05,9.37e-06,0.0,0 STARLINK-4602,1 53629U 22104AT  23072.55064197  .00000937  00000-0  76925-4 0  9997,2 53629  53.2160  96.6027 0001185 125.2304 234.8799 15.08838593 30887,6917.885,95.438,540.569,538.93,0.0
53629.0,STARLINK-4602,PAYLOAD,2023-03-14 05:06:47,15.08836116,0.0001498,53.2161,93.6241,132.1377,227.9743,-0.00012082,-2.21e-05,0.0,0 STARLINK-4602,1 53629U 22104AT  23073.21305291 -.00002210  00000-0 -12082-3 0  9995,2 53629  53.2161  93.6241 0001498 132.1377 227.9743 15.08836116 30293,6917.892,95.438,540.794,538.721,0.0
53629.0,STARLINK-4602,PAYLOAD,2023-03-14 08:17:33,15.08840644,0.0001389,53.2175,93.0339,125.1631,234.9492,-6.6592e-05,-1.348e-05,0.0,0 STARLINK-4602,1 53629U 22104AT  23073.34552990 -.00001348  00000-0 -66592-4 0  9996,2 53629  53.2175  93.0339 0001389 125.1631 234.9492 15.08840644 31004,6917.878,95.438,540.704,538.783,0.0
53629.0,STARLINK-4602,PAYLOAD,2023-03-14 17:49:52,15.08841248,0.0001333,53.2182,91.2502,113.3873,246.7259,-7.2563e-05,-1.443e-05,0.0,0 STARLINK-4602,1 53629U 22104AT  23073.74296996 -.00001443  00000-0 -72563-4 0  9992,2 53629  53.2182  91.2502 0001333 113.3873 246.7259 15.08841248 31069,6917.877,95.437,540.664,538.819,0.0
53629.0,STARLINK-4602,PAYLOAD,2023-03-15 11:19:06,15.08840465,0.0001156,53.2171,87.9787,100.9005,259.2117,0.000171,2.435e-05,0.0,0 STARLINK-4602,1 53629U 22104AT  23074.47159853  .00002435  00000-0  17100-3 0  9998,2 53629  53.2171  87.9787 0001156 100.9005 259.2117 15.08840465 30483,6917.879,95.438,540.544,538.944,0.0
53629.0,STARLINK-4602,PAYLOAD,2023-03-16 04:48:22,15.08831104,0.0001225,53.2177,84.7084,105.5154,254.5973,-2.7424e-05,-7.24e-06,0.0,0 STARLINK-4602,1 53629U 22104AT  23075.20025531 -.00000724  00000-0 -27424-4 0  9997,2 53629  53.2177  84.7084 0001225 105.5154 254.5973 15.08831104 30597,6917.908,95.438,540.62,538.925,0.0
53629.0,STARLINK-4602,PAYLOAD,2023-03-16 12:45:17,15.08840023,0.0001293,53.2177,83.2214,101.3353,258.7784,3.0767e-05,2.02e-06,0.0,0 STARLINK-4602,1 53629U 22104AT  23075.53144866  .00000202  00000-0  30767-4 0  9999,2 53629  53.2177  83.2214 0001293 101.3353 258.7784 15.08840023 31335,6917.88,95.438,540.64,538.851,0.0
53629.0,STARLINK-4602,PAYLOAD,2023-03-16 17:31:27,15.08829249,0.0001457,53.2183,82.3288,88.3512,271.7647,-5.6154e-05,-1.181e-05,0.0,0 STARLINK-4602,1 53629U 22104AT  23075.73017927 -.00001181  00000-0 -56154-4 0  9995,2 53629  53.2183  82.3288 0001457  88.3512 271.7647 15.08829249 31369,6917.913,95.438,540.786,538.77,0.0
53629.0,STARLINK-4602,PAYLOAD,2023-03-17 12:36:04,15.08844907,0.0001298,53.2181,78.7605,88.3075,271.8066,-6.507e-05,-1.323e-05,0.0,0 STARLINK-4602,1 53629U 22104AT  23076.52505137 -.00001323  00000-0 -65070-4 0  9993,2 53629  53.2181  78.7605 0001298  88.3075 271.8066 15.08844907 30796,6917.865,95.437,540.628,538.832,0.0
53629.0,STARLINK-4602,PAYLOAD,2023-03-17 17:22:13,15.08845074,0.0001254,53.2175,77.8695,87.7909,272.3227,-7.6362e-05,-1.503e-05,0.0,0 STARLINK-4602,1 53629U 22104AT  23076.72377132 -.00001503  00000-0 -76362-4 0  9993,2 53629  53.2175  77.8695 0001254  87.7909 272.3227 15.08845074 31511,6917.865,95.437,540.597,538.862,0.0
53629.0,STARLINK-4602,PAYLOAD,2023-03-18 17:13:01,15.08835444,0.0001371,53.2177,73.4072,80.7637,279.351,-1.3636e-05,-5.05e-06,0.0,0 STARLINK-4602,1 53629U 22104AT  23077.71737512 -.00000505  00000-0 -13636-4 0  9991,2 53629  53.2177  73.4072 0001371  80.7637 279.3510 15.08835444 30976,6917.894,95.438,540.708,538.811,0.0
53629.0,STARLINK-4602,PAYLOAD,2023-03-19 10:42:15,15.08845285,0.0001282,53.2172,70.1378,82.4835,277.6303,3.9322e-05,3.38e-06,0.0,0 STARLINK-4602,1 53629U 22104AT  23078.44600795  .00000338  00000-0  39322-4 0  9996,2 53629  53.2172  70.1378 0001282  82.4835 277.6303 15.08845285 31082,6917.864,95.437,540.616,538.842,0.0
